{"type": "FeatureCollection", "features": [ {"type": "Feature", "properties": {"norad_id": 34682, "name": "COSMOS 2251 DEB", "group": "cosmos-2251-debris", "lat": -13.576459933055684, "lon": -87.63755848799174, "alt_km": 689.3959803174748, "timestamp": "2025-12-09T21:34:11.804439+00:00", "meta": {"OBJECT_NAME": "COSMOS 2251 DEB", "OBJECT_ID": "1993-036YC", "EPOCH": "2025-12-08T13:28:57.741024", "MEAN_MOTION": 14.58847249, "ECCENTRICITY": 0.0018543, "INCLINATION": 74.04, "RA_OF_ASC_NODE": 90.9444, "ARG_OF_PERICENTER": 224.1225, "MEAN_ANOMALY": 151.2779, "EPHEMERIS_TYPE": 0, "CLASSIFICATION_TYPE": "U", "NORAD_CAT_ID": 34682, "ELEMENT_SET_NO": 999, "REV_AT_EPOCH": 88625, "BSTAR": 0.0013547, "MEAN_MOTION_DOT": 6.331e-05, "MEAN_MOTION_DDOT": 0}, "tle": {"line1": "1 34682U 93036YC  25342.56177941  .00006331  00000+0  13547-2 0  9994", "line2": "2 34682  74.0400  90.9444 0018543 224.1225 151.2779 14.58847249886252"}}, "geometry": {"type": "Point", "coordinates": [-87.63755848799174, -13.576459933055684]}}, {"type": "Feature", "properties": {"norad_id": 34683, "name": "COSMOS 2251 DEB", "group": "cosmos-2251-debris", "lat": -64.75698490898114, "lon": 60.32560265869209, "alt_km": 682.9420388248927, "timestamp": "2025-12-09T21:34:11.804449+00:00", "meta": {"OBJECT_NAME": "COSMOS 2251 DEB", "OBJECT_ID": "1993-036YD", "EPOCH": "2025-12-09T09:01:51.949344", "MEAN_MOTION": 14.64408596, "ECCENTRICITY": 0.00185052, "INCLINATION": 74.0289, "RA_OF_ASC_NODE": 98.7331, "ARG_OF_PERICENTER": 213.5344, "MEAN_ANOMALY": 202.9303, "EPHEMERIS_TYPE": 0, "CLASSIFICATION_TYPE": "U", "NORAD_CAT_ID": 34683, "ELEMENT_SET_NO": 999, "REV_AT_EPOCH": 88299, "BSTAR": 0.0019964072, "MEAN_MOTION_DOT": 0.00010571, "MEAN_MOTION_DDOT": 0}, "tle": {"line1": "1 34683U 93036YD  25343.37629571  .00010571  00000+0  19964-2 0  9996", "line2": "2 34683  74.0289  98.7331 0018505 213.5344 202.9303 14.64408596882990"}}, "geometry": {"type": "Point", "coordinates": [60.32560265869209, -64.75698490898114]}}, {"type": "Feature", "properties": {"norad_id": 34685, "name": "COSMOS 2251 DEB", "group": "cosmos-2251-debris", "lat": 27.313891753873293, "lon": -34.3213323465383, "alt_km": 702.8187971070092, "timestamp": "2025-12-09T21:34:11.804476+00:00", "meta": {"OBJECT_NAME": "COSMOS 2251 DEB", "OBJECT_ID": "1993-036YF", "EPOCH": "2025-12-09T12:54:07.237728", "MEAN_MOTION": 14.57459291, "ECCENTRICITY": 0.00143023, "INCLINATION": 74.0291, "RA_OF_ASC_NODE": 154.8704, "ARG_OF_PERICENTER": 258.8562, "MEAN_ANOMALY": 158.4928, "EPHEMERIS_TYPE": 0, "CLASSIFICATION_TYPE": "U", "NORAD_CAT_ID": 34685, "ELEMENT_SET_NO": 999, "REV_AT_EPOCH": 88485, "BSTAR": 0.001515714, "MEAN_MOTION_DOT": 6.87e-05, "MEAN_MOTION_DDOT": 0}, "tle": {"line1": "1 34685U 93036YF  25343.53758377  .00006870  00000+0  15157-2 0  9990", "line2": "2 34685  74.0291 154.8704 0014302 258.8562 158.4928 14.57459291884853"}}, "geometry": {"type": "Point", "coordinates": [-34.3213323465383, 27.313891753873293]}}, {"type": "Feature", "properties": {"norad_id": 34689, "name": "COSMOS 2251 DEB", "group": "cosmos-2251-debris", "lat": 5.81891691100417, "lon": 46.675707591666445, "alt_km": 970.6765600383214, "timestamp": "2025-12-09T21:34:11.804489+00:00", "meta": {"OBJECT_NAME": "COSMOS 2251 DEB", "OBJECT_ID": "1993-036YK", "EPOCH": "2025-12-09T15:43:43.204224", "MEAN_MOTION": 14.04380278, "ECCENTRICITY": 0.02287704, "INCLINATION": 74.0977, "RA_OF_ASC_NODE": 228.7634, "ARG_OF_PERICENTER": 298.3373, "MEAN_ANOMALY": 87.6678, "EPHEMERIS_TYPE": 0, "CLASSIFICATION_TYPE": "U", "NORAD_CAT_ID": 34689, "ELEMENT_SET_NO": 999, "REV_AT_EPOCH": 84298, "BSTAR": 0.0057121034, "MEAN_MOTION_DOT": 0.00011476, "MEAN_MOTION_DDOT": 0}, "tle": {"line1": "1 34689U 93036YK  25343.65536116  .00011476  00000+0  57121-2 0  9997", "line2": "2 34689  74.0977 228.7634 0228770 298.3373  87.6678 14.04380278842989"}}, "geometry": {"type": "Point", "coordinates": [46.675707591666445, 5.81891691100417]}}, {"type": "Feature", "properties": {"norad_id": 34721, "name": "COSMOS 2251 DEB", "group": "cosmos-2251-debris", "lat": -68.7289891015125, "lon": -76.61562266477694, "alt_km": 752.9751206909514, "timestamp": "2025-12-09T21:34:11.804500+00:00", "meta": {"OBJECT_NAME": "COSMOS 2251 DEB", "OBJECT_ID": "1993-036YP", "EPOCH": "2025-12-08T23:44:20.442336", "MEAN_MOTION": 13.96821392, "ECCENTRICITY": 0.02238657, "INCLINATION": 73.9235, "RA_OF_ASC_NODE": 332.7561, "ARG_OF_PERICENTER": 272.3834, "MEAN_ANOMALY": 118.8256, "EPHEMERIS_TYPE": 0, "CLASSIFICATION_TYPE": "U", "NORAD_CAT_ID": 34721, "ELEMENT_SET_NO": 999, "REV_AT_EPOCH": 85097, "BSTAR": 0.0019617403, "MEAN_MOTION_DOT": 3.345e-05, "MEAN_MOTION_DDOT": 0}, "tle": {"line1": "1 34721U 93036YP  25342.98912549  .00003345  00000+0  19617-2 0  9991", "line2": "2 34721  73.9235 332.7561 0223865 272.3834 118.8256 13.96821392850974"}}, "geometry": {"type": "Point", "coordinates": [-76.61562266477694, -68.7289891015125]}}, {"type": "Feature", "properties": {"norad_id": 34722, "name": "COSMOS 2251 DEB", "group": "cosmos-2251-debris", "lat": -3.0199998089522904, "lon": -19.73914429363714, "alt_km": 853.3105033892107, "timestamp": "2025-12-09T21:34:11.804510+00:00", "meta": {"OBJECT_NAME": "COSMOS 2251 DEB", "OBJECT_ID": "1993-036YQ", "EPOCH": "2025-12-09T10:24:51.303168", "MEAN_MOTION": 14.11918789, "ECCENTRICITY": 0.01672791, "INCLINATION": 73.8728, "RA_OF_ASC_NODE": 341.9641, "ARG_OF_PERICENTER": 268.0911, "MEAN_ANOMALY": 245.2383, "EPHEMERIS_TYPE": 0, "CLASSIFICATION_TYPE": "U", "NORAD_CAT_ID": 34722, "ELEMENT_SET_NO": 999, "REV_AT_EPOCH": 86198, "BSTAR": 0.0014193204, "MEAN_MOTION_DOT": 2.934e-05, "MEAN_MOTION_DDOT": 0}, "tle": {"line1": "1 34722U 93036YQ  25343.43392712  .00002934  00000+0  14193-2 0  9994", "line2": "2 34722  73.8728 341.9641 0167279 268.0911 245.2383 14.11918789861980"}}, "geometry": {"type": "Point", "coordinates": [-19.73914429363714, -3.0199998089522904]}}, {"type": "Feature", "properties": {"norad_id": 34726, "name": "COSMOS 2251 DEB", "group": "cosmos-2251-debris", "lat": -70.0741090744795, "lon": -136.06942119408043, "alt_km": 714.0421552134694, "timestamp": "2025-12-09T21:34:11.804520+00:00", "meta": {"OBJECT_NAME": "COSMOS 2251 DEB", "OBJECT_ID": "1993-036YU", "EPOCH": "2025-12-09T07:14:03.297984", "MEAN_MOTION": 14.59462245, "ECCENTRICITY": 0.0042153, "INCLINATION": 74.0291, "RA_OF_ASC_NODE": 352.8826, "ARG_OF_PERICENTER": 144.7976, "MEAN_ANOMALY": 215.5988, "EPHEMERIS_TYPE": 0, "CLASSIFICATION_TYPE": "U", "NORAD_CAT_ID": 34726, "ELEMENT_SET_NO": 999, "REV_AT_EPOCH": 88452, "BSTAR": 0.00064817, "MEAN_MOTION_DOT": 3.084e-05, "MEAN_MOTION_DDOT": 0}, "tle": {"line1": "1 34726U 93036YU  25343.30142706  .00003084  00000+0  64817-3 0  9996", "line2": "2 34726  74.0291 352.8826 0042153 144.7976 215.5988 14.59462245884521"}}, "geometry": {"type": "Point", "coordinates": [-136.06942119408043, -70.0741090744795]}}, {"type": "Feature", "properties": {"norad_id": 34728, "name": "COSMOS 2251 DEB", "group": "cosmos-2251-debris", "lat": 18.34227147668044, "lon": -97.25576259241427, "alt_km": 635.2858487747671, "timestamp": "2025-12-09T21:34:11.804531+00:00", "meta": {"OBJECT_NAME": "COSMOS 2251 DEB", "OBJECT_ID": "1993-036YW", "EPOCH": "2025-12-09T11:41:21.069888", "MEAN_MOTION": 14.70794927, "ECCENTRICITY": 0.00409671, "INCLINATION": 74.0171, "RA_OF_ASC_NODE": 258.0914, "ARG_OF_PERICENTER": 56.6298, "MEAN_ANOMALY": 303.8783, "EPHEMERIS_TYPE": 0, "CLASSIFICATION_TYPE": "U", "NORAD_CAT_ID": 34728, "ELEMENT_SET_NO": 999, "REV_AT_EPOCH": 88752, "BSTAR": 0.0012390282, "MEAN_MOTION_DOT": 7.642e-05, "MEAN_MOTION_DDOT": 0}, "tle": {"line1": "1 34728U 93036YW  25343.48704942  .00007642  00000+0  12390-2 0  9995", "line2": "2 34728  74.0171 258.0914 0040967  56.6298 303.8783 14.70794927887529"}}, "geometry": {"type": "Point", "coordinates": [-97.25576259241427, 18.34227147668044]}}, {"type": "Feature", "properties": {"norad_id": 34729, "name": "COSMOS 2251 DEB", "group": "cosmos-2251-debris", "lat": -73.94310584547826, "lon": -80.65354305393332, "alt_km": 634.8245901549444, "timestamp": "2025-12-09T21:34:11.804541+00:00", "meta": {"OBJECT_NAME": "COSMOS 2251 DEB", "OBJECT_ID": "1993-036YX", "EPOCH": "2025-12-09T02:47:26.996352", "MEAN_MOTION": 14.82631186, "ECCENTRICITY": 0.00118898, "INCLINATION": 74.0182, "RA_OF_ASC_NODE": 5.6061, "ARG_OF_PERICENTER": 126.9078, "MEAN_ANOMALY": 289.8188, "EPHEMERIS_TYPE": 0, "CLASSIFICATION_TYPE": "U", "NORAD_CAT_ID": 34729, "ELEMENT_SET_NO": 999, "REV_AT_EPOCH": 88404, "BSTAR": 0.0021138717, "MEAN_MOTION_DOT": 0.0001706, "MEAN_MOTION_DDOT": 0}, "tle": {"line1": "1 34729U 93036YX  25343.11628468  .00017060  00000+0  21139-2 0  9990", "line2": "2 34729  74.0182   5.6061 0011889 126.9078 289.8188 14.82631186884045"}}, "geometry": {"type": "Point", "coordinates": [-80.65354305393332, -73.94310584547826]}}, {"type": "Feature", "properties": {"norad_id": 34732, "name": "COSMOS 2251 DEB", "group": "cosmos-2251-debris", "lat": 39.00054579888323, "lon": -94.9006186243781, "alt_km": 741.3852081081741, "timestamp": "2025-12-09T21:34:11.804551+00:00", "meta": {"OBJECT_NAME": "COSMOS 2251 DEB", "OBJECT_ID": "1993-036ZA", "EPOCH": "2025-12-09T09:34:54.065568", "MEAN_MOTION": 14.47295119, "ECCENTRICITY": 0.00404501, "INCLINATION": 74.045, "RA_OF_ASC_NODE": 99.4278, "ARG_OF_PERICENTER": 251.0632, "MEAN_ANOMALY": 166.8756, "EPHEMERIS_TYPE": 0, "CLASSIFICATION_TYPE": "U", "NORAD_CAT_ID": 34732, "ELEMENT_SET_NO": 999, "REV_AT_EPOCH": 88095, "BSTAR": 0.00029203423, "MEAN_MOTION_DOT": 1.052e-05, "MEAN_MOTION_DDOT": 0}, "tle": {"line1": "1 34732U 93036ZA  25343.39923687  .00001052  00000+0  29203-3 0  9990", "line2": "2 34732  74.0450  99.4278 0040450 251.0632 166.8756 14.47295119880954"}}, "geometry": {"type": "Point", "coordinates": [-94.9006186243781, 39.00054579888323]}}]}